[
    {
        "Altitude(m)": 705663.6010574629,
        "Argument of Periapsis(deg)": 0.0,
        "Eccentricity": 0.0,
        "Inclination(deg)": 45.0,
        "Latitude(deg)": -11.613240877012256,
        "Longitude(deg)": 148.2358349177314,
        "Mean Anomaly(deg)": -16.363600000000087,
        "RAAN(deg)": 260.0,
        "Satellite Name": "Constellation 1 1165",
        "Satellite Number": 1165,
        "Semi-Major Axis(m)": 7083131.272910544,
        "Time(s)": 0
    },
    {
        "Altitude(m)": 705652.9479854588,
        "Argument of Periapsis(deg)": 5.994800624540561e-05,
        "Eccentricity": 0.0,
        "Inclination(deg)": 45.0,
        "Latitude(deg)": -11.570973423727171,
        "Longitude(deg)": 148.27635112270156,
        "Mean Anomaly(deg)": -16.30289885975015,
        "RAAN(deg)": 259.9999434108344,
        "Satellite Name": "Constellation 1 1165",
        "Satellite Number": 1165,
        "Semi-Major Axis(m)": 7083131.272910544,
        "Time(s)": 1
    },
    {
        "Altitude(m)": 705642.3105589275,
        "Argument of Periapsis(deg)": 0.00011989601249081122,
        "Eccentricity": 0.0,
        "Inclination(deg)": 45.0,
        "Latitude(deg)": -11.528698886412698,
        "Longitude(deg)": 148.3168540398103,
        "Mean Anomaly(deg)": -16.242197719500265,
        "RAAN(deg)": 259.9998868216689,
        "Satellite Name": "Constellation 1 1165",
        "Satellite Number": 1165,
        "Semi-Major Axis(m)": 7083131.272910544,
        "Time(s)": 2
    },
    {
        "Altitude(m)": 705631.6888077816,
        "Argument of Periapsis(deg)": 0.00017984401873621686,
        "Eccentricity": 0.0,
        "Inclination(deg)": 45.0,
        "Latitude(deg)": -11.486417293285365,
        "Longitude(deg)": 148.3573437209665,
        "Mean Anomaly(deg)": -16.18149657925038,
        "RAAN(deg)": 259.9998302325033,
        "Satellite Name": "Constellation 1 1165",
        "Satellite Number": 1165,
        "Semi-Major Axis(m)": 7083131.272910544,
        "Time(s)": 3
    },
    {
        "Altitude(m)": 705621.0827618618,
        "Argument of Periapsis(deg)": 0.00023979202498162244,
        "Eccentricity": 0.0,
        "Inclination(deg)": 45.0,
        "Latitude(deg)": -11.444128672536644,
        "Longitude(deg)": 148.39782021805337,
        "Mean Anomaly(deg)": -16.12079543900044,
        "RAAN(deg)": 259.9997736433377,
        "Satellite Name": "Constellation 1 1165",
        "Satellite Number": 1165,
        "Semi-Major Axis(m)": 7083131.272910544,
        "Time(s)": 4
    },
    {
        "Altitude(m)": 705610.4924509232,
        "Argument of Periapsis(deg)": 0.00029974003122702807,
        "Eccentricity": 0.0,
        "Inclination(deg)": 45.0,
        "Latitude(deg)": -11.401833052332911,
        "Longitude(deg)": 148.43828358292873,
        "Mean Anomaly(deg)": -16.060094298750503,
        "RAAN(deg)": 259.99971705417215,
        "Satellite Name": "Constellation 1 1165",
        "Satellite Number": 1165,
        "Semi-Major Axis(m)": 7083131.272910544,
        "Time(s)": 5
    },
    {
        "Altitude(m)": 705599.9179046621,
        "Argument of Periapsis(deg)": 0.00035968803747243373,
        "Eccentricity": 0.0,
        "Inclination(deg)": 45.0,
        "Latitude(deg)": -11.359530460815666,
        "Longitude(deg)": 148.47873386742503,
        "Mean Anomaly(deg)": -15.999393158500718,
        "RAAN(deg)": 259.99966046500657,
        "Satellite Name": "Constellation 1 1165",
        "Satellite Number": 1165,
        "Semi-Major Axis(m)": 7083131.272910544,
        "Time(s)": 6
    },
    {
        "Altitude(m)": 705589.3591526727,
        "Argument of Periapsis(deg)": 0.00041963604371783933,
        "Eccentricity": 0.0,
        "Inclination(deg)": 45.0,
        "Latitude(deg)": -11.317220926100868,
        "Longitude(deg)": 148.51917095525297,
        "Mean Anomaly(deg)": -15.93869201825078,
        "RAAN(deg)": 259.99960387584105,
        "Satellite Name": "Constellation 1 1165",
        "Satellite Number": 1165,
        "Semi-Major Axis(m)": 7083131.272910544,
        "Time(s)": 7
    },
    {
        "Altitude(m)": 705578.8162244953,
        "Argument of Periapsis(deg)": 0.0004795840499632449,
        "Eccentricity": 0.0,
        "Inclination(deg)": 45.0,
        "Latitude(deg)": -11.274904476280774,
        "Longitude(deg)": 148.55959523438835,
        "Mean Anomaly(deg)": -15.877990878000793,
        "RAAN(deg)": 259.99954728667547,
        "Satellite Name": "Constellation 1 1165",
        "Satellite Number": 1165,
        "Semi-Major Axis(m)": 7083131.272910544,
        "Time(s)": 8
    },
    {
        "Altitude(m)": 705568.2891495858,
        "Argument of Periapsis(deg)": 0.0005395320562086505,
        "Eccentricity": 0.0,
        "Inclination(deg)": 45.0,
        "Latitude(deg)": -11.232581139422292,
        "Longitude(deg)": 148.60000658849123,
        "Mean Anomaly(deg)": -15.817289737750958,
        "RAAN(deg)": 259.9994906975098,
        "Satellite Name": "Constellation 1 1165",
        "Satellite Number": 1165,
        "Semi-Major Axis(m)": 7083131.272910544,
        "Time(s)": 9
    },
    {
        "Altitude(m)": 705557.7779573184,
        "Argument of Periapsis(deg)": 0.0005994800624540561,
        "Eccentricity": 0.0,
        "Inclination(deg)": 45.0,
        "Latitude(deg)": -11.190250943567724,
        "Longitude(deg)": 148.64040506929373,
        "Mean Anomaly(deg)": -15.75658859750107,
        "RAAN(deg)": 259.9994341083443,
        "Satellite Name": "Constellation 1 1165",
        "Satellite Number": 1165,
        "Semi-Major Axis(m)": 7083131.272910544,
        "Time(s)": 10
    },
    {
        "Altitude(m)": 705547.2826769943,
        "Argument of Periapsis(deg)": 0.0006594280686994618,
        "Eccentricity": 0.0,
        "Inclination(deg)": 45.0,
        "Latitude(deg)": -11.147913916734927,
        "Longitude(deg)": 148.68079072850296,
        "Mean Anomaly(deg)": -15.695887457251132,
        "RAAN(deg)": 259.9993775191787,
        "Satellite Name": "Constellation 1 1165",
        "Satellite Number": 1165,
        "Semi-Major Axis(m)": 7083131.272910544,
        "Time(s)": 11
    },
    {
        "Altitude(m)": 705536.8033378404,
        "Argument of Periapsis(deg)": 0.0007193760749448675,
        "Eccentricity": 0.0,
        "Inclination(deg)": 45.0,
        "Latitude(deg)": -11.10557008691753,
        "Longitude(deg)": 148.72116361780095,
        "Mean Anomaly(deg)": -15.635186317001194,
        "RAAN(deg)": 259.9993209300132,
        "Satellite Name": "Constellation 1 1165",
        "Satellite Number": 1165,
        "Semi-Major Axis(m)": 7083131.272910544,
        "Time(s)": 12
    },
    {
        "Altitude(m)": 705526.3399690023,
        "Argument of Periapsis(deg)": 0.000779324081190273,
        "Eccentricity": 0.0,
        "Inclination(deg)": 45.0,
        "Latitude(deg)": -11.063219482084959,
        "Longitude(deg)": 148.7615237888449,
        "Mean Anomaly(deg)": -15.57448517675141,
        "RAAN(deg)": 259.9992643408476,
        "Satellite Name": "Constellation 1 1165",
        "Satellite Number": 1165,
        "Semi-Major Axis(m)": 7083131.272910544,
        "Time(s)": 13
    },
    {
        "Altitude(m)": 705515.8925995529,
        "Argument of Periapsis(deg)": 0.0008392720874356787,
        "Eccentricity": 0.0,
        "Inclination(deg)": 45.0,
        "Latitude(deg)": -11.020862130181973,
        "Longitude(deg)": 148.8018712932677,
        "Mean Anomaly(deg)": -15.513784036501422,
        "RAAN(deg)": 259.999207751682,
        "Satellite Name": "Constellation 1 1165",
        "Satellite Number": 1165,
        "Semi-Major Axis(m)": 7083131.272910544,
        "Time(s)": 14
    },
    {
        "Altitude(m)": 705505.4612584797,
        "Argument of Periapsis(deg)": 0.0008992200936810842,
        "Eccentricity": 0.0,
        "Inclination(deg)": 45.0,
        "Latitude(deg)": -10.978498059129599,
        "Longitude(deg)": 148.84220601458014,
        "Mean Anomaly(deg)": -15.453082896251486,
        "RAAN(deg)": 259.99915116251645,
        "Satellite Name": "Constellation 1 1165",
        "Satellite Number": 1165,
        "Semi-Major Axis(m)": 7083131.272910544,
        "Time(s)": 15
    },
    {
        "Altitude(m)": 705495.0459747026,
        "Argument of Periapsis(deg)": 0.0009591680999264898,
        "Eccentricity": 0.0,
        "Inclination(deg)": 45.0,
        "Latitude(deg)": -10.93612729682541,
        "Longitude(deg)": 148.88252834055936,
        "Mean Anomaly(deg)": -15.39238175600165,
        "RAAN(deg)": 259.9990945733509,
        "Satellite Name": "Constellation 1 1165",
        "Satellite Number": 1165,
        "Semi-Major Axis(m)": 7083131.272910544,
        "Time(s)": 16
    },
    {
        "Altitude(m)": 705484.64677705,
        "Argument of Periapsis(deg)": 0.0010191161061718953,
        "Eccentricity": 0.0,
        "Inclination(deg)": 45.0,
        "Latitude(deg)": -10.893749871142282,
        "Longitude(deg)": 148.92283815466732,
        "Mean Anomaly(deg)": -15.331680615751763,
        "RAAN(deg)": 259.99903798418535,
        "Satellite Name": "Constellation 1 1165",
        "Satellite Number": 1165,
        "Semi-Major Axis(m)": 7083131.272910544,
        "Time(s)": 17
    },
    {
        "Altitude(m)": 705474.2636942948,
        "Argument of Periapsis(deg)": 0.001079064112417301,
        "Eccentricity": 0.0,
        "Inclination(deg)": 45.0,
        "Latitude(deg)": -10.851365809929574,
        "Longitude(deg)": 148.9631355084383,
        "Mean Anomaly(deg)": -15.270979475501825,
        "RAAN(deg)": 259.99898139501977,
        "Satellite Name": "Constellation 1 1165",
        "Satellite Number": 1165,
        "Semi-Major Axis(m)": 7083131.272910544,
        "Time(s)": 18
    }
]